SPACEBEE-7              
1 43816U 18099BL  25064.44046797  .00039434  00000+0  14179-2 0  9993
2 43816  97.5078 133.3332 0007665 102.2043 258.0055 15.28489876342073
